NORAD_CAT_ID,OBJECT_NAME,OBJECT_TYPE,EPOCH,MEAN_MOTION,ECCENTRICITY,INCLINATION,RA_OF_ASC_NODE,ARG_OF_PERICENTER,MEAN_ANOMALY,BSTAR,MEAN_MOTION_DOT,MEAN_MOTION_DDOT,TLE_LINE0,TLE_LINE1,TLE_LINE2,SEMIMAJOR_AXIS,PERIOD,APOGEE,PERIGEE,DECAYED
54080.0,STARLINK-5160,PAYLOAD,2023-08-14 08:16:45,15.08844012,0.0001272,53.2164,231.6772,88.7901,271.3237,5.8254e-05,6.39e-06,0.0,0 STARLINK-5160,1 54080U 22136AF  23226.34496911  .00000639  00000-0  58254-4 0  9999,2 54080  53.2164 231.6772 0001272  88.7901 271.3237 15.08844012 45730,6917.868,95.437,540.613,538.853,0.0
54080.0,STARLINK-5160,PAYLOAD,2023-08-15 17:39:51,15.08842341,0.0001263,53.2158,225.4329,88.0783,272.0354,6.4412e-05,7.37e-06,0.0,0 STARLINK-5160,1 54080U 22136AF  23227.73600877  .00000737  00000-0  64412-4 0  9993,2 54080  53.2158 225.4329 0001263  88.0783 272.0354 15.08842341 45947,6917.873,95.437,540.612,538.865,0.0
54080.0,STARLINK-5160,PAYLOAD,2023-08-16 23:52:11,15.08837051,0.0001296,53.2163,219.7827,91.603,268.511,3.2973e-05,2.37e-06,0.0,0 STARLINK-5160,1 54080U 22136AF  23228.99457317  .00000237  00000-0  32973-4 0  9993,2 54080  53.2163 219.7827 0001296  91.6030 268.5110 15.08837051 46137,6917.889,95.438,540.651,538.858,0.0
54080.0,STARLINK-5160,PAYLOAD,2023-08-18 09:15:15,15.08854039,0.0001366,53.2164,213.5375,92.9022,267.2127,0.0001804,2.585e-05,0.0,0 STARLINK-5160,1 54080U 22136AF  23230.38559678  .00002585  00000-0  18040-3 0  9998,2 54080  53.2164 213.5375 0001366  92.9022 267.2127 15.08854039 46343,6917.837,95.437,540.647,538.758,0.0
54080.0,STARLINK-5160,PAYLOAD,2023-08-18 15:36:49,15.08833931,0.0001812,53.2167,212.3473,88.4557,271.6643,3.727e-05,3.05e-06,0.0,0 STARLINK-5160,1 54080U 22136AF  23230.65057528  .00000305  00000-0  37270-4 0  9990,2 54080  53.2167 212.3473 0001812  88.4557 271.6643 15.08833931 46385,6917.899,95.438,541.017,538.51,0.0
54080.0,STARLINK-5160,PAYLOAD,2023-08-19 07:30:41,15.08830552,0.0001458,53.2171,209.3754,98.0873,262.0285,-1.2524e-05,-4.87e-06,0.0,0 STARLINK-5160,1 54080U 22136AF  23231.31298074 -.00000487  00000-0 -12524-4 0  9995,2 54080  53.2171 209.3754 0001458  98.0873 262.0285 15.08830552 46485,6917.909,95.438,540.783,538.766,0.0
54080.0,STARLINK-5160,PAYLOAD,2023-08-21 04:01:29,15.08847249,0.0001477,53.2171,201.049,99.8377,260.2782,0.00028291,4.218e-05,0.0,0 STARLINK-5160,1 54080U 22136AF  23233.16770255  .00004218  00000-0  28291-3 0  9997,2 54080  53.2171 201.0490 0001477  99.8377 260.2782 15.08847249 46764,6917.858,95.437,540.745,538.701,0.0
54080.0,STARLINK-5160,PAYLOAD,2023-08-22 03:52:16,15.08851958,0.0001707,53.2172,196.5868,99.2598,260.8587,0.00010118,1.323e-05,0.0,0 STARLINK-5160,1 54080U 22136AF  23234.16130700  .00001323  00000-0  10118-3 0  9996,2 54080  53.2172 196.5868 0001707  99.2598 260.8587 15.08851958 46915,6917.844,95.437,540.89,538.528,0.0
54080.0,STARLINK-5160,PAYLOAD,2023-08-23 02:07:40,15.08851198,0.000144,53.2178,192.4227,106.0994,254.0157,-5.6095e-05,-1.181e-05,0.0,0 STARLINK-5160,1 54080U 22136AF  23235.08866489 -.00001181  00000-0 -56095-4 0  9997,2 54080  53.2178 192.4227 0001440 106.0994 254.0157 15.08851198 47056,6917.846,95.437,540.707,538.715,0.0
54080.0,STARLINK-5160,PAYLOAD,2023-08-24 06:44:36,15.08861814,0.0001476,53.2176,187.071,98.5848,261.5312,-9.9763e-05,-1.876e-05,0.0,0 STARLINK-5160,1 54080U 22136AF  23236.28097415 -.00001876  00000-0 -99763-4 0  9995,2 54080  53.2176 187.0710 0001476  98.5848 261.5312 15.08861814 46751,6917.814,95.436,540.7,538.658,0.0
54080.0,STARLINK-5160,PAYLOAD,2023-08-25 01:49:14,15.08838996,0.0001415,53.2178,183.5025,96.4791,263.6362,6.746e-05,7.86e-06,0.0,0 STARLINK-5160,1 54080U 22136AF  23237.07586479  .00000786  00000-0  67460-4 0  9992,2 54080  53.2178 183.5025 0001415  96.4791 263.6362 15.08838996 47350,6917.883,95.438,540.727,538.77,0.0
54080.0,STARLINK-5160,PAYLOAD,2023-08-25 06:35:23,15.08840998,0.0001433,53.2181,182.611,95.5586,264.557,7.7754e-05,9.5e-06,0.0,0 STARLINK-5160,1 54080U 22136AF  23237.27458312  .00000950  00000-0  77754-4 0  9998,2 54080  53.2181 182.6110 0001433  95.5586 264.5570 15.08840998 46907,6917.877,95.437,540.734,538.751,0.0
54080.0,STARLINK-5160,PAYLOAD,2023-08-25 20:53:52,15.0882661,0.0001492,53.2191,179.9345,94.8716,265.2446,0.00011905,1.607e-05,0.0,0 STARLINK-5160,1 54080U 22136AF  23237.87075082  .00001607  00000-0  11905-3 0  9998,2 54080  53.2191 179.9345 0001492  94.8716 265.2446 15.08826610 46993,6917.921,95.438,540.818,538.754,0.0
54080.0,STARLINK-5160,PAYLOAD,2023-08-26 04:50:48,15.08841675,0.0001489,53.2187,178.4485,92.0229,268.0933,1.9988e-05,3e-07,0.0,0 STARLINK-5160,1 54080U 22136AF  23238.20194554  .00000030  00000-0  19988-4 0  9991,2 54080  53.2187 178.4485 0001489  92.0229 268.0933 15.08841675 47522,6917.875,95.437,540.77,538.71,0.0
54080.0,STARLINK-5160,PAYLOAD,2023-08-27 06:16:58,15.08843773,0.0001511,53.2184,173.6911,88.9037,271.2128,9.6191e-05,1.243e-05,0.0,0 STARLINK-5160,1 54080U 22136AF  23239.26178507  .00001243  00000-0  96191-4 0  9996,2 54080  53.2184 173.6911 0001511  88.9037 271.2128 15.08843773 47687,6917.869,95.437,540.779,538.689,0.0
54080.0,STARLINK-5160,PAYLOAD,2023-08-28 01:21:36,15.08837905,0.0001602,53.2185,170.1222,84.521,275.5964,6.748e-05,7.86e-06,0.0,0 STARLINK-5160,1 54080U 22136AF  23240.05667137  .00000786  00000-0  67480-4 0  9997,2 54080  53.2185 170.1222 0001602  84.5210 275.5964 15.08837905 47800,6917.887,95.438,540.86,538.644,0.0
54080.0,STARLINK-5160,PAYLOAD,2023-08-28 18:50:50,15.08840679,0.0001308,53.2165,166.8521,96.3219,263.7922,6.5573e-06,-1.84e-06,0.0,0 STARLINK-5160,1 54080U 22136AF  23240.78531131 -.00000184  00000-0  65573-5 0  9996,2 54080  53.2165 166.8521 0001308  96.3219 263.7922 15.08840679 47439,6917.878,95.438,540.648,538.838,0.0
54080.0,STARLINK-5160,PAYLOAD,2023-08-29 04:23:09,15.08847292,0.0001292,53.2167,165.0687,92.8739,267.2401,6.1411e-05,6.9e-06,0.0,0 STARLINK-5160,1 54080U 22136AF  23241.18274507  .00000690  00000-0  61411-4 0  9999,2 54080  53.2167 165.0687 0001292  92.8739 267.2401 15.08847292 47973,6917.858,95.437,540.617,538.829,0.0
54080.0,STARLINK-5160,PAYLOAD,2023-08-30 01:03:10,15.0883872,0.0001408,53.2178,161.2022,88.7004,271.4149,1.9212e-05,1.8e-07,0.0,0 STARLINK-5160,1 54080U 22136AF  23242.04387386  .00000018  00000-0  19212-4 0  9991,2 54080  53.2178 161.2022 0001408  88.7004 271.4149 15.08838720 48102,6917.884,95.438,540.723,538.775,0.0
54080.0,STARLINK-5160,PAYLOAD,2023-08-30 12:10:52,15.08842655,8.08e-05,53.2174,159.1219,115.0392,245.0685,5.9506e-06,-1.93e-06,0.0,0 STARLINK-5160,1 54080U 22136AF  23242.50754844 -.00000193  00000-0  59506-5 0  9995,2 54080  53.2174 159.1219 0000808 115.0392 245.0685 15.08842655 47696,6917.872,95.437,540.296,539.178,0.0
54080.0,STARLINK-5160,PAYLOAD,2023-08-31 04:04:42,15.08862208,9.23e-05,53.2176,156.1486,89.2639,270.8458,0.00023238,3.415e-05,0.0,0 STARLINK-5160,1 54080U 22136AF  23243.16993192  .00003415  00000-0  23238-3 0  9999,2 54080  53.2176 156.1486 0000923  89.2639 270.8458 15.08862208 48270,6917.813,95.436,540.316,539.039,0.0
54080.0,STARLINK-5160,PAYLOAD,2023-09-01 02:20:02,15.08924256,6.35e-05,53.2163,151.9895,340.2476,19.8492,0.0002369,3.493e-05,0.0,0 STARLINK-5160,1 54080U 22136AF  23244.09725291  .00003493  00000-0  23690-3 0  9993,2 54080  53.2163 151.9895 0000635 340.2476  19.8492 15.08924256 48419,6917.623,95.432,539.927,539.049,0.0
54080.0,STARLINK-5160,PAYLOAD,2023-09-01 08:41:40,15.08842405,0.0001274,53.2157,150.7959,77.9835,282.13,4.459e-05,4.22e-06,0.0,0 STARLINK-5160,1 54080U 22136AF  23244.36227062  .00000422  00000-0  44590-4 0  9998,2 54080  53.2157 150.7959 0001274  77.9835 282.1300 15.08842405 48455,6917.873,95.437,540.619,538.857,0.0
54080.0,STARLINK-5160,PAYLOAD,2023-09-02 10:07:50,15.08840505,0.0001405,53.2168,146.0369,85.0869,275.0284,3.2596e-05,2.31e-06,0.0,0 STARLINK-5160,1 54080U 22136AF  23245.42211033  .00000231  00000-0  32596-4 0  9998,2 54080  53.2168 146.0369 0001405  85.0869 275.0284 15.08840505 48612,6917.879,95.438,540.716,538.772,0.0
54080.0,STARLINK-5160,PAYLOAD,2023-09-03 02:01:43,15.08823969,0.0001641,53.2171,143.0651,83.87,276.2479,-7.2774e-05,-1.446e-05,0.0,0 STARLINK-5160,1 54080U 22136AF  23246.08452859 -.00001446  00000-0 -72774-4 0  9997,2 54080  53.2171 143.0651 0001641  83.8700 276.2479 15.08823969 48714,6917.929,95.439,540.93,538.659,0.0
54080.0,STARLINK-5160,PAYLOAD,2023-09-03 09:58:38,15.08829542,0.0001724,53.2168,141.5792,85.4089,274.71,-1.7487e-05,-5.66e-06,0.0,0 STARLINK-5160,1 54080U 22136AF  23246.41572671 -.00000566  00000-0 -17487-4 0  9991,2 54080  53.2168 141.5792 0001724  85.4089 274.7100 15.08829542 48761,6917.912,95.438,540.97,538.585,0.0
54080.0,STARLINK-5160,PAYLOAD,2023-09-04 01:52:28,15.0885306,0.0001314,53.2187,138.6043,83.2905,276.8237,-4.8151e-07,-2.96e-06,0.0,0 STARLINK-5160,1 54080U 22136AF  23247.07811245 -.00000296  00000-0 -48151-6 0  9991,2 54080  53.2187 138.6043 0001314  83.2905 276.8237 15.08853060 48863,6917.84,95.437,540.614,538.796,0.0
54080.0,STARLINK-5160,PAYLOAD,2023-09-04 09:49:25,15.08838383,0.0001511,53.2174,137.1154,85.0822,275.0343,0.00012982,1.779e-05,0.0,0 STARLINK-5160,1 54080U 22136AF  23247.40931869  .00001779  00000-0  12982-3 0  9998,2 54080  53.2174 137.1154 0001511  85.0822 275.0343 15.08838383 48919,6917.885,95.438,540.796,538.705,0.0
54080.0,STARLINK-5160,PAYLOAD,2023-09-05 01:43:16,15.0884265,0.0001346,53.2151,134.1431,85.1299,274.9846,0.00016617,2.358e-05,0.0,0 STARLINK-5160,1 54080U 22136AF  23248.07171847  .00002358  00000-0  16617-3 0  9997,2 54080  53.2151 134.1431 0001346  85.1299 274.9846 15.08842650 48530,6917.872,95.437,540.668,538.806,0.0
54080.0,STARLINK-5160,PAYLOAD,2023-09-05 22:23:17,15.0883961,0.000135,53.2175,130.2775,86.4016,273.7131,7.2113e-05,8.6e-06,0.0,0 STARLINK-5160,1 54080U 22136AF  23248.93284299  .00000860  00000-0  72113-4 0  9998,2 54080  53.2175 130.2775 0001350  86.4016 273.7131 15.08839610 49144,6917.882,95.438,540.68,538.813,0.0
